     2.10           G: GLONASS NAV DATA                     RINEX VERSION / TYPE
teqc  2015Jun23                         20211115 01:25:49UTCPGM / RUN BY / DATE
Linux 2.4.21-27.ELsmp|Opteron|gcc -static|Linux x86_64|=+   COMMENT
  2021    10    22   -9.313225746155D-10                    CORR TO SYSTEM TIME
                                                            END OF HEADER
10 21 10 23 19 15  0.0-7.631257176399D-05 0.000000000000D+00 6.840000000000D+04
   -7.015957031250D+03 5.653572082520D-02 0.000000000000D+00 0.000000000000D+00
    2.446486621094D+04 3.374137878418D-01 3.725290298462D-09-7.000000000000D+00
    2.209525878906D+03-3.544812202454D+00 1.862645149231D-09 0.000000000000D+00
22 21 10 23 19 15  0.0-1.407172530890D-04-2.728484105319D-12 6.840000000000D+04
    1.514077294922D+04-7.465171813965D-02-9.313225746155D-10 0.000000000000D+00
    2.025585742188D+04-4.692211151123D-01 3.725290298462D-09-3.000000000000D+00
    2.958667480469D+03 3.587953567505D+00 9.313225746155D-10 0.000000000000D+00
10 21 10 23 19 45  0.0-7.631257176399D-05 0.000000000000D+00 7.020000000000D+04
   -6.692723632812D+03 2.627325057983D-01 9.313225746155D-10 0.000000000000D+00
    2.429884326172D+04-5.299987792969D-01 2.793967723846D-09-7.000000000000D+00
   -4.174101074219D+03-3.502251625061D+00 2.793967723846D-09 0.000000000000D+00
 7 21 10 23 19 45  0.0-4.045665264130D-05 0.000000000000D+00 7.020000000000D+04
   -1.112622998047D+04-2.426522254944D+00 9.313225746155D-10 0.000000000000D+00
    1.308939794922D+04 8.979158401489D-01-0.000000000000D+00 5.000000000000D+00
   -1.884685839844D+04 2.048162460327D+00 1.862645149231D-09 0.000000000000D+00
 6 21 10 23 19 45  0.0-1.145899295807D-05-1.818989403546D-12 7.020000000000D+04
   -2.282554492188D+04-5.365314483643D-01 1.862645149231D-09 0.000000000000D+00
    1.047902783203D+04 3.428249359131D-01 0.000000000000D+00-4.000000000000D+00
   -4.554914550781D+03 3.488167762756D+00 9.313225746155D-10 0.000000000000D+00
 9 21 10 23 19 45  0.0 1.978874206543D-05 1.818989403546D-12 7.020000000000D+04
   -1.165456689453D+04 5.253067016602D-01 9.313225746155D-10 0.000000000000D+00
    1.369603125000D+04-2.419859886169D+00-0.000000000000D+00-2.000000000000D+00
   -1.803703710938D+04-2.180995941162D+00 1.862645149231D-09 0.000000000000D+00
21 21 10 23 19 45  0.0-2.490179613233D-04-2.728484105319D-12 7.020000000000D+04
    1.602500488281D+03-2.070420265198D+00 0.000000000000D+00 0.000000000000D+00
    1.426963769531D+04-2.020159721375D+00 4.656612873077D-09 4.000000000000D+00
    2.109460986328D+04 1.520619392395D+00-0.000000000000D+00 0.000000000000D+00
22 21 10 23 19 45  0.0-1.407228410244D-04-2.728484105319D-12 7.020000000000D+04
    1.438966357422D+04-7.800769805908D-01-0.000000000000D+00 0.000000000000D+00
    1.887547558594D+04-1.025741577148D+00 4.656612873077D-09-3.000000000000D+00
    9.218052246094D+03 3.321507453918D+00 9.313225746155D-10 0.000000000000D+00
10 21 10 23 20 15  0.0-7.631257176399D-05 0.000000000000D+00 7.200000000000D+04
   -6.217166992188D+03 2.253646850586D-01 9.313225746155D-10 0.000000000000D+00
    2.256259960938D+04-1.387859344482D+00 1.862645149231D-09-7.000000000000D+00
   -1.023637597656D+04-3.190044403076D+00 2.793967723846D-09 0.000000000000D+00
 7 21 10 23 20 15  0.0-4.045665264130D-05 0.000000000000D+00 7.200000000000D+04
   -1.489252490234D+04-1.733668327332D+00 1.862645149231D-09 0.000000000000D+00
    1.481373681641D+04 9.780263900757D-01-0.000000000000D+00 5.000000000000D+00
   -1.447897949219D+04 2.773381233215D+00 1.862645149231D-09 0.000000000000D+00
 6 21 10 23 20 15  0.0-1.146271824837D-05-1.818989403546D-12 7.200000000000D+04
   -2.303595605469D+04 2.895708084106D-01 1.862645149231D-09 0.000000000000D+00
    1.083460839844D+04 1.397228240967D-02 0.000000000000D+00-4.000000000000D+00
    1.818587402344D+03 3.547596931458D+00 0.000000000000D+00 0.000000000000D+00
 9 21 10 23 20 15  0.0 1.979153603315D-05 1.818989403546D-12 7.200000000000D+04
   -1.097710595703D+04 2.023334503174D-01 9.313225746155D-10 0.000000000000D+00
    8.868310058594D+03-2.902751922607D+00-9.313225746155D-10-2.000000000000D+00
   -2.121176708984D+04-1.323611259460D+00 1.862645149231D-09 0.000000000000D+00
22 21 10 23 20 15  0.0-1.407284289598D-04-2.728484105319D-12 7.200000000000D+04
    1.229313427734D+04-1.550593376160D+00 0.000000000000D+00 0.000000000000D+00
    1.671875634766D+04-1.324513435364D+00 4.656612873077D-09-3.000000000000D+00
    1.476084423828D+04 2.796997070312D+00 0.000000000000D+00 0.000000000000D+00
 8 21 10 23 20 15  0.0-6.161071360111D-05-0.000000000000D+00 7.251000000000D+04
    1.164899902344D+03-2.804393768311D+00 0.000000000000D+00 0.000000000000D+00
    1.142871142578D+04 1.378884315491D+00-0.000000000000D+00 6.000000000000D+00
   -2.272968603516D+04 5.458831787109D-01 2.793967723846D-09 0.000000000000D+00
12 21 10 23 20 15  0.0 2.724975347519D-04 3.637978807092D-12 7.359000000000D+04
    9.371116699219D+03-1.309919357300D-01 0.000000000000D+00 0.000000000000D+00
    1.083982958984D+04 2.883428573608D+00 3.725290298462D-09-1.000000000000D+00
    2.113866894531D+04-1.420687675476D+00-0.000000000000D+00 0.000000000000D+00
22 21 10 23 20 45  0.0-1.407330855727D-04-2.728484105319D-12 7.380000000000D+04
    8.839286621094D+03-2.268332481384D+00 9.313225746155D-10 0.000000000000D+00
    1.427489892578D+04-1.345455169678D+00 4.656612873077D-09-3.000000000000D+00
    1.915680615234D+04 2.055665016174D+00-0.000000000000D+00 0.000000000000D+00
 7 21 10 23 20 45  0.0-4.045572131872D-05 0.000000000000D+00 7.380000000000D+04
   -1.731202490234D+04-9.488286972046D-01 1.862645149231D-09 0.000000000000D+00
    1.645722558594D+04 8.045234680176D-01-0.000000000000D+00 5.000000000000D+00
   -8.992044921875D+03 3.283570289612D+00 9.313225746155D-10 0.000000000000D+00
 6 21 10 23 20 45  0.0-1.146644353867D-05-1.818989403546D-12 7.380000000000D+04
   -2.186185839844D+04 9.851856231689D-01 1.862645149231D-09 0.000000000000D+00
    1.040736474609D+04-5.168647766113D-01 0.000000000000D+00-4.000000000000D+00
    8.051631835938D+03 3.333065986633D+00-0.000000000000D+00 0.000000000000D+00
 8 21 10 23 20 45  0.0-6.161164492369D-05-0.000000000000D+00 7.380000000000D+04
   -3.519306640625D+03-2.362781524658D+00 9.313225746155D-10 0.000000000000D+00
    1.416830322266D+04 1.630317687988D+00-0.000000000000D+00 6.000000000000D+00
   -2.087739257812D+04 1.498671531677D+00 2.793967723846D-09 0.000000000000D+00
10 21 10 23 20 45  0.0-7.631257176399D-05-0.000000000000D+00 7.380000000000D+04
   -6.016515136719D+03-3.578281402588D-02 9.313225746155D-10 0.000000000000D+00
    1.937654199219D+04-2.123006820679D+00 0.000000000000D+00-7.000000000000D+00
   -1.551038427734D+04-2.632008552551D+00 2.793967723846D-09 0.000000000000D+00
12 21 10 23 20 45  0.0 2.725040540099D-04 3.637978807092D-12 7.380000000000D+04
    9.503076660156D+03 2.564344406128D-01 9.313225746155D-10 0.000000000000D+00
    1.565075488281D+04 2.418093681335D+00 4.656612873077D-09-1.000000000000D+00
    1.780003320312D+04-2.264939308167D+00 0.000000000000D+00 0.000000000000D+00
10 21 10 23 21 15  0.0-7.631257176399D-05-0.000000000000D+00 7.560000000000D+04
   -6.444399414062D+03-4.599094390869D-01 9.313225746155D-10 0.000000000000D+00
    1.505125976562D+04-2.640137672424D+00-9.313225746155D-10-7.000000000000D+00
   -1.958934570312D+04-1.870730400085D+00 1.862645149231D-09 0.000000000000D+00
 7 21 10 23 21 15  0.0-4.045478999615D-05 0.000000000000D+00 7.560000000000D+04
   -1.832195898438D+04-1.864738464355D-01 1.862645149231D-09 0.000000000000D+00
    1.755781298828D+04 3.788461685181D-01-0.000000000000D+00 5.000000000000D+00
   -2.810859863281D+03 3.539865493774D+00 9.313225746155D-10 0.000000000000D+00
 6 21 10 23 21 15  0.0-1.147016882896D-05-1.818989403546D-12 7.560000000000D+04
   -1.961943701172D+04 1.465139389038D+00 1.862645149231D-09 0.000000000000D+00
    8.898884765625D+03-1.171858787537D+00-0.000000000000D+00-4.000000000000D+00
    1.366260400391D+04 2.860837936401D+00-9.313225746155D-10 0.000000000000D+00
 8 21 10 23 21 15  0.0-6.161257624626D-05-0.000000000000D+00 7.560000000000D+04
   -7.233440429688D+03-1.742564201355D+00 9.313225746155D-10 0.000000000000D+00
    1.715371875000D+04 1.642861366272D+00-0.000000000000D+00 6.000000000000D+00
   -1.740493994141D+04 2.334324836731D+00 1.862645149231D-09 0.000000000000D+00
12 21 10 23 21 15  0.0 2.725105732679D-04 3.637978807092D-12 7.560000000000D+04
    1.019263623047D+04 4.754886627197D-01 1.862645149231D-09 0.000000000000D+00
    1.940850244141D+04 1.726462364197D+00 4.656612873077D-09-1.000000000000D+00
    1.308970996094D+04-2.934931755066D+00 9.313225746155D-10 0.000000000000D+00
22 21 10 23 21 15  0.0-1.407377421856D-04-1.818989403546D-12 7.626000000000D+04
    4.227288085938D+03-2.819948196411D+00 1.862645149231D-09 0.000000000000D+00
    1.202612500000D+04-1.116155624390D+00 3.725290298462D-09-3.000000000000D+00
    2.206580273438D+04 1.155684471130D+00-0.000000000000D+00 0.000000000000D+00
10 21 10 23 21 45  0.0-7.631257176399D-05-0.000000000000D+00 7.740000000000D+04
   -7.715391601562D+03-9.555215835571D-01-0.000000000000D+00 0.000000000000D+00
    1.004110693359D+04-2.876960754395D+00-1.862645149231D-09-7.000000000000D+00
   -2.215776513672D+04-9.644203186035D-01 1.862645149231D-09 0.000000000000D+00
 7 21 10 23 21 45  0.0-4.045385867357D-05 0.000000000000D+00 7.740000000000D+04
   -1.806130859375D+04 4.467697143555D-01 1.862645149231D-09 0.000000000000D+00
    1.769645898438D+04-2.532558441162D-01-0.000000000000D+00 5.000000000000D+00
    3.587179199219D+03 3.523047447205D+00-0.000000000000D+00 0.000000000000D+00
 6 21 10 23 21 45  0.0-1.147482544184D-05-1.818989403546D-12 7.740000000000D+04
   -1.674666308594D+04 1.681087493896D+00 9.313225746155D-10 0.000000000000D+00
    6.175855468750D+03-1.847934722900D+00-0.000000000000D+00-4.000000000000D+00
    1.821740087891D+04 2.167112350464D+00-1.862645149231D-09 0.000000000000D+00
